{"fetched_at":"2026-03-29T16:36:15Z","count":15609,"tles":[{"name":"STARLINK-11576 [DTC]","line1":"1 62993U 25031N   26087.71638476  .00180802  00000+0  13804-2 0  9991","line2":"2 62993  43.0005 246.8722 0000567 191.8495 168.2359 15.70868862 65724","category":"Starlink"}]}