{
  "norad_id": 62993,
  "name": "STARLINK-11576 [DTC]",
  "history": [
    {
      "epoch": "2026-03-28T17:11:35.643264Z",
      "apogee_km": 356.79502490407594,
      "perigee_km": 356.03011476393476,
      "latitude_deg": -2.2399851385591486e-05,
      "longitude_deg": 162.84082561974114,
      "height_km": 356.5581455888952,
      "semi_major_axis_km": 6734.5495698340055,
      "eccentricity": 5.679e-05,
      "inclination_deg": 43.0005,
      "raan_deg": 246.8722,
      "arg_perigee_deg": 191.8495,
      "mean_anomaly_deg": 168.2359,
      "mean_motion_rev_day": 15.70868862
    }
  ]
}